{
  "type": "FeatureCollection",
  "features": [
    {
      "type": "Feature",
      "properties": {
        "norad_id": 33791,
        "name": "COSMOS 2251 DEB",
        "group": "cosmos-2251-debris",
        "lat": 26.195997551318055,
        "lon": -178.18860397446164,
        "alt_km": 733.284149602584,
        "timestamp": "2025-12-27T19:21:59.137975+00:00",
        "meta_object_name": "COSMOS 2251 DEB",
        "meta_object_id": "1993-036AG",
        "meta_epoch": "2025-12-27T12:34:02.697312",
        "meta_mean_motion": 14.43207872,
        "meta_eccentricity": 0.0029905,
        "meta_inclination": 74.1753,
        "meta_ra_of_asc_node": 10.3538,
        "meta_arg_of_pericenter": 204.5311,
        "meta_mean_anomaly": 277.0677,
        "meta_ephemeris_type": 0,
        "meta_classification_type": "U",
        "meta_norad_cat_id": 33791,
        "meta_element_set_no": 999,
        "meta_rev_at_epoch": 88265,
        "meta_bstar": 0.0010363,
        "meta_mean_motion_dot": 3.48e-05,
        "meta_mean_motion_ddot": 0,
        "tle_line1": "1 33791U 93036AG  25361.52364233  .00003480  00000+0  10363-2 0  9998",
        "tle_line2": "2 33791  74.1753  10.3538 0029905 204.5311 277.0677 14.43207872882656"
      },
      "geometry": {
        "type": "Point",
        "coordinates": [
          -178.18860397446164,
          26.195997551318055
        ]
      }
    },
    {
      "type": "Feature",
      "properties": {
        "norad_id": 33792,
        "name": "COSMOS 2251 DEB",
        "group": "cosmos-2251-debris",
        "lat": -34.9696141500313,
        "lon": -50.370197634327575,
        "alt_km": 922.2776748384176,
        "timestamp": "2025-12-27T19:21:59.137985+00:00",
        "meta_object_name": "COSMOS 2251 DEB",
        "meta_object_id": "1993-036AH",
        "meta_epoch": "2025-12-27T07:46:50.219040",
        "meta_mean_motion": 13.45854239,
        "meta_eccentricity": 0.0427967,
        "meta_inclination": 73.9014,
        "meta_ra_of_asc_node": 322.0531,
        "meta_arg_of_pericenter": 24.0532,
        "meta_mean_anomaly": 125.5179,
        "meta_ephemeris_type": 0,
        "meta_classification_type": "U",
        "meta_norad_cat_id": 33792,
        "meta_element_set_no": 999,
        "meta_rev_at_epoch": 82638,
        "meta_bstar": 0.0014081,
        "meta_mean_motion_dot": 1.442e-05,
        "meta_mean_motion_ddot": 0,
        "tle_line1": "1 33792U 93036AH  25361.32419235  .00001442  00000+0  14081-2 0  9997",
        "tle_line2": "2 33792  73.9014 322.0531 0427967  24.0532 125.5179 13.45854239826388"
      },
      "geometry": {
        "type": "Point",
        "coordinates": [
          -50.370197634327575,
          -34.9696141500313
        ]
      }
    },
    {
      "type": "Feature",
      "properties": {
        "norad_id": 33793,
        "name": "COSMOS 2251 DEB",
        "group": "cosmos-2251-debris",
        "lat": -70.0770570249271,
        "lon": 70.10195616957364,
        "alt_km": 750.6472376680149,
        "timestamp": "2025-12-27T19:21:59.137994+00:00",
        "meta_object_name": "COSMOS 2251 DEB",
        "meta_object_id": "1993-036AJ",
        "meta_epoch": "2025-12-27T09:54:22.756032",
        "meta_mean_motion": 14.27776321,
        "meta_eccentricity": 0.0079028,
        "meta_inclination": 73.9812,
        "meta_ra_of_asc_node": 123.2495,
        "meta_arg_of_pericenter": 270.5211,
        "meta_mean_anomaly": 146.0714,
        "meta_ephemeris_type": 0,
        "meta_classification_type": "U",
        "meta_norad_cat_id": 33793,
        "meta_element_set_no": 999,
        "meta_rev_at_epoch": 87416,
        "meta_bstar": 0.00089729,
        "meta_mean_motion_dot": 2.265e-05,
        "meta_mean_motion_ddot": 0,
        "tle_line1": "1 33793U 93036AJ  25361.41276338  .00002265  00000+0  89729-3 0  9999",
        "tle_line2": "2 33793  73.9812 123.2495 0079028 270.5211 146.0714 14.27776321874166"
      },
      "geometry": {
        "type": "Point",
        "coordinates": [
          70.10195616957364,
          -70.0770570249271
        ]
      }
    },
    {
      "type": "Feature",
      "properties": {
        "norad_id": 33795,
        "name": "COSMOS 2251 DEB",
        "group": "cosmos-2251-debris",
        "lat": 42.05504794270772,
        "lon": -149.13956043651066,
        "alt_km": 524.147473665611,
        "timestamp": "2025-12-27T19:21:59.138015+00:00",
        "meta_object_name": "COSMOS 2251 DEB",
        "meta_object_id": "1993-036AL",
        "meta_epoch": "2025-12-27T06:19:13.630080",
        "meta_mean_motion": 15.06001552,
        "meta_eccentricity": 0.0030299,
        "meta_inclination": 74.0312,
        "meta_ra_of_asc_node": 46.9465,
        "meta_arg_of_pericenter": 124.4256,
        "meta_mean_anomaly": 305.4057,
        "meta_ephemeris_type": 0,
        "meta_classification_type": "U",
        "meta_norad_cat_id": 33795,
        "meta_element_set_no": 999,
        "meta_rev_at_epoch": 90240,
        "meta_bstar": 0.0012485,
        "meta_mean_motion_dot": 0.00018397,
        "meta_mean_motion_ddot": 0,
        "tle_line1": "1 33795U 93036AL  25361.26335220  .00018397  00000+0  12485-2 0  9997",
        "tle_line2": "2 33795  74.0312  46.9465 0030299 124.4256 305.4057 15.06001552902401"
      },
      "geometry": {
        "type": "Point",
        "coordinates": [
          -149.13956043651066,
          42.05504794270772
        ]
      }
    },
    {
      "type": "Feature",
      "properties": {
        "norad_id": 33797,
        "name": "COSMOS 2251 DEB",
        "group": "cosmos-2251-debris",
        "lat": -56.75305187725578,
        "lon": -147.80797055572933,
        "alt_km": 743.9055180224814,
        "timestamp": "2025-12-27T19:21:59.138024+00:00",
        "meta_object_name": "COSMOS 2251 DEB",
        "meta_object_id": "1993-036AN",
        "meta_epoch": "2025-12-27T12:14:46.052736",
        "meta_mean_motion": 14.57900917,
        "meta_eccentricity": 0.0060336,
        "meta_inclination": 74.0476,
        "meta_ra_of_asc_node": 6.8859,
        "meta_arg_of_pericenter": 90.2158,
        "meta_mean_anomaly": 33.3598,
        "meta_ephemeris_type": 0,
        "meta_classification_type": "U",
        "meta_norad_cat_id": 33797,
        "meta_element_set_no": 999,
        "meta_rev_at_epoch": 89200,
        "meta_bstar": 0.00046014,
        "meta_mean_motion_dot": 2.133e-05,
        "meta_mean_motion_ddot": 0,
        "tle_line1": "1 33797U 93036AN  25361.51025524  .00002133  00000+0  46014-3 0  9997",
        "tle_line2": "2 33797  74.0476   6.8859 0060336  90.2158  33.3598 14.57900917892001"
      },
      "geometry": {
        "type": "Point",
        "coordinates": [
          -147.80797055572933,
          -56.75305187725578
        ]
      }
    },
    {
      "type": "Feature",
      "properties": {
        "norad_id": 33798,
        "name": "COSMOS 2251 DEB",
        "group": "cosmos-2251-debris",
        "lat": 56.01733642326985,
        "lon": -97.29921820688536,
        "alt_km": 754.6107644156336,
        "timestamp": "2025-12-27T19:21:59.138034+00:00",
        "meta_object_name": "COSMOS 2251 DEB",
        "meta_object_id": "1993-036AP",
        "meta_epoch": "2025-12-27T09:05:57.484320",
        "meta_mean_motion": 14.44634359,
        "meta_eccentricity": 0.0092258,
        "meta_inclination": 74.0296,
        "meta_ra_of_asc_node": 108.638,
        "meta_arg_of_pericenter": 226.8297,
        "meta_mean_anomaly": 190.599,
        "meta_ephemeris_type": 0,
        "meta_classification_type": "U",
        "meta_norad_cat_id": 33798,
        "meta_element_set_no": 999,
        "meta_rev_at_epoch": 88805,
        "meta_bstar": 0.00022713,
        "meta_mean_motion_dot": 7.99e-06,
        "meta_mean_motion_ddot": 0,
        "tle_line1": "1 33798U 93036AP  25361.37913755  .00000799  00000+0  22713-3 0  9990",
        "tle_line2": "2 33798  74.0296 108.6380 0092258 226.8297 190.5990 14.44634359888053"
      },
      "geometry": {
        "type": "Point",
        "coordinates": [
          -97.29921820688536,
          56.01733642326985
        ]
      }
    },
    {
      "type": "Feature",
      "properties": {
        "norad_id": 33799,
        "name": "COSMOS 2251 DEB",
        "group": "cosmos-2251-debris",
        "lat": 66.94396803388082,
        "lon": -170.16184634056225,
        "alt_km": 607.7280269389512,
        "timestamp": "2025-12-27T19:21:59.138044+00:00",
        "meta_object_name": "COSMOS 2251 DEB",
        "meta_object_id": "1993-036AQ",
        "meta_epoch": "2025-12-27T06:15:17.617248",
        "meta_mean_motion": 14.79857732,
        "meta_eccentricity": 0.0021945,
        "meta_inclination": 74.0326,
        "meta_ra_of_asc_node": 53.1898,
        "meta_arg_of_pericenter": 118.4044,
        "meta_mean_anomaly": 319.1794,
        "meta_ephemeris_type": 0,
        "meta_classification_type": "U",
        "meta_norad_cat_id": 33799,
        "meta_element_set_no": 999,
        "meta_rev_at_epoch": 89026,
        "meta_bstar": 0.0015284,
        "meta_mean_motion_dot": 0.00011557,
        "meta_mean_motion_ddot": 0,
        "tle_line1": "1 33799U 93036AQ  25361.26062057  .00011557  00000+0  15284-2 0  9997",
        "tle_line2": "2 33799  74.0326  53.1898 0021945 118.4044 319.1794 14.79857732890264"
      },
      "geometry": {
        "type": "Point",
        "coordinates": [
          -170.16184634056225,
          66.94396803388082
        ]
      }
    }
  ]
}